{
  "type": "FeatureCollection",
  "features": [
    {
      "type": "Feature",
      "properties": {
        "norad_id": 28890,
        "name": "BEIJING 1",
        "group": "dmc",
        "lat": -7.919738620310875,
        "lon": 114.61068586510022,
        "alt_km": 695.7432441985002,
        "timestamp": "2025-12-11T22:43:46.938339+00:00",
        "meta_object_name": "BEIJING 1",
        "meta_object_id": "2005-043A",
        "meta_epoch": "2025-12-11T14:33:40.025664",
        "meta_mean_motion": 14.63365076,
        "meta_eccentricity": 0.0015263,
        "meta_inclination": 98.2655,
        "meta_ra_of_asc_node": 113.1109,
        "meta_arg_of_pericenter": 144.5448,
        "meta_mean_anomaly": 215.6772,
        "meta_ephemeris_type": 0,
        "meta_classification_type": "U",
        "meta_norad_cat_id": 28890,
        "meta_element_set_no": 999,
        "meta_rev_at_epoch": 7321,
        "meta_bstar": 0.00017122102,
        "meta_mean_motion_dot": 8.37e-06,
        "meta_mean_motion_ddot": 0,
        "tle_line1": "1 28890U 05043A   25345.60671326  .00000837  00000+0  17122-3 0  9992",
        "tle_line2": "2 28890  98.2655 113.1109 0015263 144.5448 215.6772 14.63365076 73211"
      },
      "geometry": {
        "type": "Point",
        "coordinates": [
          114.61068586510022,
          -7.919738620310875
        ]
      }
    },
    {
      "type": "Feature",
      "properties": {
        "norad_id": 33320,
        "name": "HUANJING 1A (HJ-1A)",
        "group": "dmc",
        "lat": -37.38423081075226,
        "lon": -19.822487860798585,
        "alt_km": 621.292102906029,
        "timestamp": "2025-12-11T22:43:46.938381+00:00",
        "meta_object_name": "HUANJING 1A (HJ-1A)",
        "meta_object_id": "2008-041A",
        "meta_epoch": "2025-12-11T14:48:17.136864",
        "meta_mean_motion": 14.8338834,
        "meta_eccentricity": 0.00203104,
        "meta_inclination": 97.6547,
        "meta_ra_of_asc_node": 333.9625,
        "meta_arg_of_pericenter": 38.13,
        "meta_mean_anomaly": 322.1347,
        "meta_ephemeris_type": 0,
        "meta_classification_type": "U",
        "meta_norad_cat_id": 33320,
        "meta_element_set_no": 999,
        "meta_rev_at_epoch": 93059,
        "meta_bstar": 0.00024308301,
        "meta_mean_motion_dot": 1.95e-05,
        "meta_mean_motion_ddot": 0,
        "tle_line1": "1 33320U 08041A   25345.61686501  .00001950  00000+0  24308-3 0  9990",
        "tle_line2": "2 33320  97.6547 333.9625 0020310  38.1300 322.1347 14.83388340930593"
      },
      "geometry": {
        "type": "Point",
        "coordinates": [
          -19.822487860798585,
          -37.38423081075226
        ]
      }
    },
    {
      "type": "Feature",
      "properties": {
        "norad_id": 33321,
        "name": "HUANJING 1B (HJ-1B)",
        "group": "dmc",
        "lat": -5.763421341959127,
        "lon": 157.20105865013423,
        "alt_km": 632.1920883886878,
        "timestamp": "2025-12-11T22:43:46.938397+00:00",
        "meta_object_name": "HUANJING 1B (HJ-1B)",
        "meta_object_id": "2008-041B",
        "meta_epoch": "2025-12-11T15:25:13.879200",
        "meta_mean_motion": 14.82813317,
        "meta_eccentricity": 0.00382205,
        "meta_inclination": 97.6404,
        "meta_ra_of_asc_node": 337.6863,
        "meta_arg_of_pericenter": 79.1227,
        "meta_mean_anomaly": 281.4285,
        "meta_ephemeris_type": 0,
        "meta_classification_type": "U",
        "meta_norad_cat_id": 33321,
        "meta_element_set_no": 999,
        "meta_rev_at_epoch": 93061,
        "meta_bstar": 9.7188399e-05,
        "meta_mean_motion_dot": 7.45e-06,
        "meta_mean_motion_ddot": 0,
        "tle_line1": "1 33321U 08041B   25345.64252175  .00000745  00000+0  97188-4 0  9998",
        "tle_line2": "2 33321  97.6404 337.6863 0038220  79.1227 281.4285 14.82813317930610"
      },
      "geometry": {
        "type": "Point",
        "coordinates": [
          157.20105865013423,
          -5.763421341959127
        ]
      }
    },
    {
      "type": "Feature",
      "properties": {
        "norad_id": 33446,
        "name": "YAOGAN-4",
        "group": "dmc",
        "lat": 79.16261870026091,
        "lon": 142.68858110091156,
        "alt_km": 619.7983717435045,
        "timestamp": "2025-12-11T22:43:46.938411+00:00",
        "meta_object_name": "YAOGAN-4",
        "meta_object_id": "2008-061A",
        "meta_epoch": "2025-12-11T12:34:26.703552",
        "meta_mean_motion": 14.82676279,
        "meta_eccentricity": 0.00136536,
        "meta_inclination": 97.9178,
        "meta_ra_of_asc_node": 275.6352,
        "meta_arg_of_pericenter": 327.7315,
        "meta_mean_anomaly": 32.3062,
        "meta_ephemeris_type": 0,
        "meta_classification_type": "U",
        "meta_norad_cat_id": 33446,
        "meta_element_set_no": 999,
        "meta_rev_at_epoch": 91785,
        "meta_bstar": 0.00029221942,
        "meta_mean_motion_dot": 2.306e-05,
        "meta_mean_motion_ddot": 0,
        "tle_line1": "1 33446U 08061A   25345.52392018  .00002306  00000+0  29222-3 0  9994",
        "tle_line2": "2 33446  97.9178 275.6352 0013653 327.7315  32.3062 14.82676279917857"
      },
      "geometry": {
        "type": "Point",
        "coordinates": [
          142.68858110091156,
          79.16261870026091
        ]
      }
    },
    {
      "type": "Feature",
      "properties": {
        "norad_id": 35681,
        "name": "DEIMOS-1",
        "group": "dmc",
        "lat": -67.87698893599311,
        "lon": -52.89251562173471,
        "alt_km": 654.4523026272354,
        "timestamp": "2025-12-11T22:43:46.938423+00:00",
        "meta_object_name": "DEIMOS-1",
        "meta_object_id": "2009-041A",
        "meta_epoch": "2025-12-11T15:05:27.271104",
        "meta_mean_motion": 14.74951002,
        "meta_eccentricity": 0.00027329,
        "meta_inclination": 97.7151,
        "meta_ra_of_asc_node": 146.2837,
        "meta_arg_of_pericenter": 81.6258,
        "meta_mean_anomaly": 278.5262,
        "meta_ephemeris_type": 0,
        "meta_classification_type": "U",
        "meta_norad_cat_id": 35681,
        "meta_element_set_no": 999,
        "meta_rev_at_epoch": 87923,
        "meta_bstar": 0.00022273716,
        "meta_mean_motion_dot": 1.449e-05,
        "meta_mean_motion_ddot": 0,
        "tle_line1": "1 35681U 09041A   25345.62878786  .00001449  00000+0  22274-3 0  9995",
        "tle_line2": "2 35681  97.7151 146.2837 0002732  81.6258 278.5262 14.74951002879234"
      },
      "geometry": {
        "type": "Point",
        "coordinates": [
          -52.89251562173471,
          -67.87698893599311
        ]
      }
    },
    {
      "type": "Feature",
      "properties": {
        "norad_id": 35683,
        "name": "UK-DMC 2",
        "group": "dmc",
        "lat": -79.03221587148809,
        "lon": -104.56416560616466,
        "alt_km": 651.5326390788669,
        "timestamp": "2025-12-11T22:43:46.938436+00:00",
        "meta_object_name": "UK-DMC 2",
        "meta_object_id": "2009-041C",
        "meta_epoch": "2025-12-11T15:02:05.482176",
        "meta_mean_motion": 14.7562036,
        "meta_eccentricity": 0.00014833,
        "meta_inclination": 97.8562,
        "meta_ra_of_asc_node": 120.5608,
        "meta_arg_of_pericenter": 97.9313,
        "meta_mean_anomaly": 262.2065,
        "meta_ephemeris_type": 0,
        "meta_classification_type": "U",
        "meta_norad_cat_id": 35683,
        "meta_element_set_no": 999,
        "meta_rev_at_epoch": 87890,
        "meta_bstar": 0.00036506386,
        "meta_mean_motion_dot": 2.442e-05,
        "meta_mean_motion_ddot": 0,
        "tle_line1": "1 35683U 09041C   25345.62645234  .00002442  00000+0  36506-3 0  9994",
        "tle_line2": "2 35683  97.8562 120.5608 0001483  97.9313 262.2065 14.75620360878903"
      },
      "geometry": {
        "type": "Point",
        "coordinates": [
          -104.56416560616466,
          -79.03221587148809
        ]
      }
    },
    {
      "type": "Feature",
      "properties": {
        "norad_id": 40715,
        "name": "DMC3-FM1",
        "group": "dmc",
        "lat": -74.73160615558395,
        "lon": -117.25360660614547,
        "alt_km": 617.0640355944233,
        "timestamp": "2025-12-11T22:43:46.938449+00:00",
        "meta_object_name": "DMC3-FM1",
        "meta_object_id": "2015-032A",
        "meta_epoch": "2025-12-11T14:59:28.027680",
        "meta_mean_motion": 14.85436421,
        "meta_eccentricity": 0.0004766,
        "meta_inclination": 97.6689,
        "meta_ra_of_asc_node": 212.8577,
        "meta_arg_of_pericenter": 326.2589,
        "meta_mean_anomaly": 33.8323,
        "meta_ephemeris_type": 0,
        "meta_classification_type": "U",
        "meta_norad_cat_id": 40715,
        "meta_element_set_no": 999,
        "meta_rev_at_epoch": 56206,
        "meta_bstar": 0.00010019127,
        "meta_mean_motion_dot": 8.12e-06,
        "meta_mean_motion_ddot": 0,
        "tle_line1": "1 40715U 15032A   25345.62462995  .00000812  00000+0  10019-3 0  9994",
        "tle_line2": "2 40715  97.6689 212.8577 0004766 326.2589  33.8323 14.85436421562063"
      },
      "geometry": {
        "type": "Point",
        "coordinates": [
          -117.25360660614547,
          -74.73160615558395
        ]
      }
    },
    {
      "type": "Feature",
      "properties": {
        "norad_id": 40716,
        "name": "DMC3-FM2",
        "group": "dmc",
        "lat": 16.680365703711924,
        "lon": 36.92698586048448,
        "alt_km": 616.5219155281229,
        "timestamp": "2025-12-11T22:43:46.938461+00:00",
        "meta_object_name": "DMC3-FM2",
        "meta_object_id": "2015-032B",
        "meta_epoch": "2025-12-11T13:54:51.869664",
        "meta_mean_motion": 14.85436451,
        "meta_eccentricity": 0.00054252,
        "meta_inclination": 97.6745,
        "meta_ra_of_asc_node": 214.2573,
        "meta_arg_of_pericenter": 330.1591,
        "meta_mean_anomaly": 29.9315,
        "meta_ephemeris_type": 0,
        "meta_classification_type": "U",
        "meta_norad_cat_id": 40716,
        "meta_element_set_no": 999,
        "meta_rev_at_epoch": 56205,
        "meta_bstar": 0.00010948056,
        "meta_mean_motion_dot": 8.92e-06,
        "meta_mean_motion_ddot": 0,
        "tle_line1": "1 40716U 15032B   25345.57976701  .00000892  00000+0  10948-3 0  9993",
        "tle_line2": "2 40716  97.6745 214.2573 0005425 330.1591  29.9315 14.85436451562058"
      },
      "geometry": {
        "type": "Point",
        "coordinates": [
          36.92698586048448,
          16.680365703711924
        ]
      }
    },
    {
      "type": "Feature",
      "properties": {
        "norad_id": 40717,
        "name": "DMC3-FM3",
        "group": "dmc",
        "lat": 46.96159052470222,
        "lon": -152.0651930964374,
        "alt_km": 607.3506000262687,
        "timestamp": "2025-12-11T22:43:46.938472+00:00",
        "meta_object_name": "DMC3-FM3",
        "meta_object_id": "2015-032C",
        "meta_epoch": "2025-12-11T14:25:59.422944",
        "meta_mean_motion": 14.85427565,
        "meta_eccentricity": 0.00047146,
        "meta_inclination": 97.68,
        "meta_ra_of_asc_node": 215.9104,
        "meta_arg_of_pericenter": 332.366,
        "meta_mean_anomaly": 27.7304,
        "meta_ephemeris_type": 0,
        "meta_classification_type": "U",
        "meta_norad_cat_id": 40717,
        "meta_element_set_no": 999,
        "meta_rev_at_epoch": 56206,
        "meta_bstar": 0.00014171932,
        "meta_mean_motion_dot": 1.17e-05,
        "meta_mean_motion_ddot": 0,
        "tle_line1": "1 40717U 15032C   25345.60138221  .00001170  00000+0  14172-3 0  9998",
        "tle_line2": "2 40717  97.6800 215.9104 0004714 332.3660  27.7304 14.85427565562061"
      },
      "geometry": {
        "type": "Point",
        "coordinates": [
          -152.0651930964374,
          46.96159052470222
        ]
      }
    }
  ]
}